{
  "type": "FeatureCollection",
  "features": [
    {
      "type": "Feature",
      "properties": {
        "norad_id": 66456,
        "name": "STARLINK-35643",
        "group": "last-30-days",
        "lat": -35.75963478911566,
        "lon": 81.33133211662586,
        "alt_km": 375.6867747756223,
        "timestamp": "2025-12-02T08:59:31.503238+00:00",
        "meta_object_name": "STARLINK-35643",
        "meta_object_id": "2025-262A",
        "meta_epoch": "2025-12-02T04:00:03.998880",
        "meta_mean_motion": 15.65842537,
        "meta_eccentricity": 0.0001396,
        "meta_inclination": 42.9997,
        "meta_ra_of_asc_node": 133.1845,
        "meta_arg_of_pericenter": 267.6857,
        "meta_mean_anomaly": 300.037,
        "meta_ephemeris_type": 0,
        "meta_classification_type": "U",
        "meta_norad_cat_id": 66456,
        "meta_element_set_no": 999,
        "meta_rev_at_epoch": 393,
        "meta_bstar": -0.023472,
        "meta_mean_motion_dot": -0.02137333,
        "meta_mean_motion_ddot": 0,
        "tle_line1": "1 66456U 25262A   25336.16671295 -.02137333  00000+0 -23472-1 0  9992",
        "tle_line2": "2 66456  42.9997 133.1845 0001396 267.6857 300.0370 15.65842537  3938"
      },
      "geometry": {
        "type": "Point",
        "coordinates": [
          81.33133211662586,
          -35.75963478911566
        ]
      }
    },
    {
      "type": "Feature",
      "properties": {
        "norad_id": 66457,
        "name": "STARLINK-35466",
        "group": "last-30-days",
        "lat": -34.03109612895221,
        "lon": 85.4864861540126,
        "alt_km": 375.5675180773005,
        "timestamp": "2025-12-02T08:59:31.503263+00:00",
        "meta_object_name": "STARLINK-35466",
        "meta_object_id": "2025-262B",
        "meta_epoch": "2025-12-02T04:00:03.998880",
        "meta_mean_motion": 15.65838988,
        "meta_eccentricity": 0.000144,
        "meta_inclination": 42.9994,
        "meta_ra_of_asc_node": 133.175,
        "meta_arg_of_pericenter": 271.5786,
        "meta_mean_anomaly": 299.9786,
        "meta_ephemeris_type": 0,
        "meta_classification_type": "U",
        "meta_norad_cat_id": 66457,
        "meta_element_set_no": 999,
        "meta_rev_at_epoch": 393,
        "meta_bstar": -0.023422,
        "meta_mean_motion_dot": -0.02133157,
        "meta_mean_motion_ddot": 0,
        "tle_line1": "1 66457U 25262B   25336.16671295 -.02133157  00000+0 -23422-1 0  9998",
        "tle_line2": "2 66457  42.9994 133.1750 0001440 271.5786 299.9786 15.65838988  3938"
      },
      "geometry": {
        "type": "Point",
        "coordinates": [
          85.4864861540126,
          -34.03109612895221
        ]
      }
    },
    {
      "type": "Feature",
      "properties": {
        "norad_id": 66458,
        "name": "STARLINK-35684",
        "group": "last-30-days",
        "lat": -34.91362616770599,
        "lon": 83.42927356766735,
        "alt_km": 375.57277040188546,
        "timestamp": "2025-12-02T08:59:31.503275+00:00",
        "meta_object_name": "STARLINK-35684",
        "meta_object_id": "2025-262C",
        "meta_epoch": "2025-12-02T04:00:03.998880",
        "meta_mean_motion": 15.65843493,
        "meta_eccentricity": 0.00015,
        "meta_inclination": 42.9996,
        "meta_ra_of_asc_node": 133.1793,
        "meta_arg_of_pericenter": 269.9389,
        "meta_mean_anomaly": 299.6981,
        "meta_ephemeris_type": 0,
        "meta_classification_type": "U",
        "meta_norad_cat_id": 66458,
        "meta_element_set_no": 999,
        "meta_rev_at_epoch": 393,
        "meta_bstar": -0.023476,
        "meta_mean_motion_dot": -0.02137816,
        "meta_mean_motion_ddot": 0,
        "tle_line1": "1 66458U 25262C   25336.16671295 -.02137816  00000+0 -23476-1 0  9994",
        "tle_line2": "2 66458  42.9996 133.1793 0001500 269.9389 299.6981 15.65843493  3936"
      },
      "geometry": {
        "type": "Point",
        "coordinates": [
          83.42927356766735,
          -34.91362616770599
        ]
      }
    },
    {
      "type": "Feature",
      "properties": {
        "norad_id": 66459,
        "name": "STARLINK-35449",
        "group": "last-30-days",
        "lat": -33.1145061678499,
        "lon": 87.50096643085718,
        "alt_km": 375.5932187834378,
        "timestamp": "2025-12-02T08:59:31.503289+00:00",
        "meta_object_name": "STARLINK-35449",
        "meta_object_id": "2025-262D",
        "meta_epoch": "2025-12-02T04:00:03.998880",
        "meta_mean_motion": 15.65843489,
        "meta_eccentricity": 0.0001409,
        "meta_inclination": 42.9996,
        "meta_ra_of_asc_node": 133.1696,
        "meta_arg_of_pericenter": 267.74,
        "meta_mean_anomaly": 305.7321,
        "meta_ephemeris_type": 0,
        "meta_classification_type": "U",
        "meta_norad_cat_id": 66459,
        "meta_element_set_no": 999,
        "meta_rev_at_epoch": 393,
        "meta_bstar": -0.023476,
        "meta_mean_motion_dot": -0.02137722,
        "meta_mean_motion_ddot": 0,
        "tle_line1": "1 66459U 25262D   25336.16671295 -.02137722  00000+0 -23476-1 0  9991",
        "tle_line2": "2 66459  42.9996 133.1696 0001409 267.7400 305.7321 15.65843489  3939"
      },
      "geometry": {
        "type": "Point",
        "coordinates": [
          87.50096643085718,
          -33.1145061678499
        ]
      }
    },
    {
      "type": "Feature",
      "properties": {
        "norad_id": 66460,
        "name": "STARLINK-35424",
        "group": "last-30-days",
        "lat": -32.165532653044394,
        "lon": 89.47414480037871,
        "alt_km": 375.58148486330174,
        "timestamp": "2025-12-02T08:59:31.503300+00:00",
        "meta_object_name": "STARLINK-35424",
        "meta_object_id": "2025-262E",
        "meta_epoch": "2025-12-02T04:00:03.998880",
        "meta_mean_motion": 15.65839605,
        "meta_eccentricity": 0.0001427,
        "meta_inclination": 42.9994,
        "meta_ra_of_asc_node": 133.1651,
        "meta_arg_of_pericenter": 265.8663,
        "meta_mean_anomaly": 309.5259,
        "meta_ephemeris_type": 0,
        "meta_classification_type": "U",
        "meta_norad_cat_id": 66460,
        "meta_element_set_no": 999,
        "meta_rev_at_epoch": 393,
        "meta_bstar": -0.02343,
        "meta_mean_motion_dot": -0.02133798,
        "meta_mean_motion_ddot": 0,
        "tle_line1": "1 66460U 25262E   25336.16671295 -.02133798  00000+0 -23430-1 0  9992",
        "tle_line2": "2 66460  42.9994 133.1651 0001427 265.8663 309.5259 15.65839605  3937"
      },
      "geometry": {
        "type": "Point",
        "coordinates": [
          89.47414480037871,
          -32.165532653044394
        ]
      }
    },
    {
      "type": "Feature",
      "properties": {
        "norad_id": 66461,
        "name": "STARLINK-35132",
        "group": "last-30-days",
        "lat": -31.18683109284856,
        "lon": 91.40575602825604,
        "alt_km": 375.5587911725888,
        "timestamp": "2025-12-02T08:59:31.503310+00:00",
        "meta_object_name": "STARLINK-35132",
        "meta_object_id": "2025-262F",
        "meta_epoch": "2025-12-02T04:00:03.998880",
        "meta_mean_motion": 15.65843672,
        "meta_eccentricity": 0.0001391,
        "meta_inclination": 42.9996,
        "meta_ra_of_asc_node": 133.1605,
        "meta_arg_of_pericenter": 266.068,
        "meta_mean_anomaly": 311.241,
        "meta_ephemeris_type": 0,
        "meta_classification_type": "U",
        "meta_norad_cat_id": 66461,
        "meta_element_set_no": 999,
        "meta_rev_at_epoch": 393,
        "meta_bstar": -0.023503,
        "meta_mean_motion_dot": -0.02139905,
        "meta_mean_motion_ddot": 0,
        "tle_line1": "1 66461U 25262F   25336.16671295 -.02139905  00000+0 -23503-1 0  9990",
        "tle_line2": "2 66461  42.9996 133.1605 0001391 266.0680 311.2410 15.65843672  3939"
      },
      "geometry": {
        "type": "Point",
        "coordinates": [
          91.40575602825604,
          -31.18683109284856
        ]
      }
    },
    {
      "type": "Feature",
      "properties": {
        "norad_id": 66462,
        "name": "STARLINK-35499",
        "group": "last-30-days",
        "lat": -30.179550665274874,
        "lon": 93.29635017359065,
        "alt_km": 375.5271901882579,
        "timestamp": "2025-12-02T08:59:31.503320+00:00",
        "meta_object_name": "STARLINK-35499",
        "meta_object_id": "2025-262G",
        "meta_epoch": "2025-12-02T04:00:03.998880",
        "meta_mean_motion": 15.65844972,
        "meta_eccentricity": 0.0001392,
        "meta_inclination": 42.9997,
        "meta_ra_of_asc_node": 133.1549,
        "meta_arg_of_pericenter": 265.5497,
        "meta_mean_anomaly": 313.6772,
        "meta_ephemeris_type": 0,
        "meta_classification_type": "U",
        "meta_norad_cat_id": 66462,
        "meta_element_set_no": 999,
        "meta_rev_at_epoch": 393,
        "meta_bstar": -0.023535,
        "meta_mean_motion_dot": -0.02142503,
        "meta_mean_motion_ddot": 0,
        "tle_line1": "1 66462U 25262G   25336.16671295 -.02142503  00000+0 -23535-1 0  9994",
        "tle_line2": "2 66462  42.9997 133.1549 0001392 265.5497 313.6772 15.65844972  3930"
      },
      "geometry": {
        "type": "Point",
        "coordinates": [
          93.29635017359065,
          -30.179550665274874
        ]
      }
    }
  ]
}